{"type": "FeatureCollection", "features": [ {"type": "Feature", "properties": {"norad_id": 66639, "name": "STARLINK-35908", "group": "last-30-days", "lat": 32.32845035065958, "lon": -15.003211550784854, "alt_km": 396.09867531469536, "timestamp": "2025-12-11T10:53:14.621149+00:00", "meta": {"OBJECT_NAME": "STARLINK-35908", "OBJECT_ID": "2025-271Y", "EPOCH": "2025-12-11T04:00:01.998720", "MEAN_MOTION": 15.56798399, "ECCENTRICITY": 9.35e-05, "INCLINATION": 53.1596, "RA_OF_ASC_NODE": 194.7091, "ARG_OF_PERICENTER": 93.5656, "MEAN_ANOMALY": 235.9632, "EPHEMERIS_TYPE": 0, "CLASSIFICATION_TYPE": "U", "NORAD_CAT_ID": 66639, "ELEMENT_SET_NO": 999, "REV_AT_EPOCH": 399, "BSTAR": -0.032182, "MEAN_MOTION_DOT": -0.02090878, "MEAN_MOTION_DDOT": 0}, "tle": {"line1": "1 66639U 25271Y   25345.16668980 -.02090878  00000+0 -32182-1 0  9992", "line2": "2 66639  53.1596 194.7091 0000935  93.5656 235.9632 15.56798399  3996"}}, "geometry": {"type": "Point", "coordinates": [-15.003211550784854, 32.32845035065958]}}, {"type": "Feature", "properties": {"norad_id": 66640, "name": "STARLINK-35921", "group": "last-30-days", "lat": 30.96744574503811, "lon": -13.419249069256491, "alt_km": 396.3526171028252, "timestamp": "2025-12-11T10:53:14.621161+00:00", "meta": {"OBJECT_NAME": "STARLINK-35921", "OBJECT_ID": "2025-271Z", "EPOCH": "2025-12-11T04:00:01.998720", "MEAN_MOTION": 15.56796584, "ECCENTRICITY": 8.63e-05, "INCLINATION": 53.1596, "RA_OF_ASC_NODE": 194.705, "ARG_OF_PERICENTER": 95.0563, "MEAN_ANOMALY": 236.3888, "EPHEMERIS_TYPE": 0, "CLASSIFICATION_TYPE": "U", "NORAD_CAT_ID": 66640, "ELEMENT_SET_NO": 999, "REV_AT_EPOCH": 399, "BSTAR": -0.032085, "MEAN_MOTION_DOT": -0.02085046, "MEAN_MOTION_DDOT": 0}, "tle": {"line1": "1 66640U 25271Z   25345.16668980 -.02085046  00000+0 -32085-1 0  9997", "line2": "2 66640  53.1596 194.7050 0000863  95.0563 236.3888 15.56796584  3999"}}, "geometry": {"type": "Point", "coordinates": [-13.419249069256491, 30.96744574503811]}}, {"type": "Feature", "properties": {"norad_id": 66641, "name": "STARLINK-35923", "group": "last-30-days", "lat": 25.346034815866407, "lon": -7.500298369041346, "alt_km": 397.2533305954785, "timestamp": "2025-12-11T10:53:14.621174+00:00", "meta": {"OBJECT_NAME": "STARLINK-35923", "OBJECT_ID": "2025-271AA", "EPOCH": "2025-12-11T04:00:01.998720", "MEAN_MOTION": 15.56795404, "ECCENTRICITY": 8.88e-05, "INCLINATION": 53.1596, "RA_OF_ASC_NODE": 194.688, "ARG_OF_PERICENTER": 102.7307, "MEAN_ANOMALY": 236.3843, "EPHEMERIS_TYPE": 0, "CLASSIFICATION_TYPE": "U", "NORAD_CAT_ID": 66641, "ELEMENT_SET_NO": 999, "REV_AT_EPOCH": 399, "BSTAR": -0.032076, "MEAN_MOTION_DOT": -0.02084501, "MEAN_MOTION_DDOT": 0}, "tle": {"line1": "1 66641U 25271AA  25345.16668980 -.02084501  00000+0 -32076-1 0  9993", "line2": "2 66641  53.1596 194.6880 0000888 102.7307 236.3843 15.56795404  3990"}}, "geometry": {"type": "Point", "coordinates": [-7.500298369041346, 25.346034815866407]}}, {"type": "Feature", "properties": {"norad_id": 66642, "name": "STARLINK-35926", "group": "last-30-days", "lat": 26.77330708740297, "lon": -8.92053664790896, "alt_km": 397.1763625902204, "timestamp": "2025-12-11T10:53:14.621184+00:00", "meta": {"OBJECT_NAME": "STARLINK-35926", "OBJECT_ID": "2025-271AB", "EPOCH": "2025-12-11T04:00:01.998720", "MEAN_MOTION": 15.5679801, "ECCENTRICITY": 7.81e-05, "INCLINATION": 53.1595, "RA_OF_ASC_NODE": 194.6933, "ARG_OF_PERICENTER": 88.9394, "MEAN_ANOMALY": 248.2567, "EPHEMERIS_TYPE": 0, "CLASSIFICATION_TYPE": "U", "NORAD_CAT_ID": 66642, "ELEMENT_SET_NO": 999, "REV_AT_EPOCH": 375, "BSTAR": -0.032105, "MEAN_MOTION_DOT": -0.02086285, "MEAN_MOTION_DDOT": 0}, "tle": {"line1": "1 66642U 25271AB  25345.16668980 -.02086285  00000+0 -32105-1 0  9998", "line2": "2 66642  53.1595 194.6933 0000781  88.9394 248.2567 15.56798010  3757"}}, "geometry": {"type": "Point", "coordinates": [-8.92053664790896, 26.77330708740297]}}, {"type": "Feature", "properties": {"norad_id": 66643, "name": "STARLINK-35918", "group": "last-30-days", "lat": 29.586500324779045, "lon": -11.878155951656987, "alt_km": 396.61443518329907, "timestamp": "2025-12-11T10:53:14.621194+00:00", "meta": {"OBJECT_NAME": "STARLINK-35918", "OBJECT_ID": "2025-271AC", "EPOCH": "2025-12-11T04:00:01.998720", "MEAN_MOTION": 15.56796594, "ECCENTRICITY": 8.49e-05, "INCLINATION": 53.1599, "RA_OF_ASC_NODE": 194.7015, "ARG_OF_PERICENTER": 93.2877, "MEAN_ANOMALY": 240.0746, "EPHEMERIS_TYPE": 0, "CLASSIFICATION_TYPE": "U", "NORAD_CAT_ID": 66643, "ELEMENT_SET_NO": 999, "REV_AT_EPOCH": 399, "BSTAR": -0.03209, "MEAN_MOTION_DOT": -0.02085375, "MEAN_MOTION_DDOT": 0}, "tle": {"line1": "1 66643U 25271AC  25345.16668980 -.02085375  00000+0 -32090-1 0  9991", "line2": "2 66643  53.1599 194.7015 0000849  93.2877 240.0746 15.56796594  3994"}}, "geometry": {"type": "Point", "coordinates": [-11.878155951656987, 29.586500324779045]}}, {"type": "Feature", "properties": {"norad_id": 66644, "name": "STARLINK-35938", "group": "last-30-days", "lat": 28.188381814016502, "lon": -10.38074542449477, "alt_km": 396.8524009610801, "timestamp": "2025-12-11T10:53:14.621204+00:00", "meta": {"OBJECT_NAME": "STARLINK-35938", "OBJECT_ID": "2025-271AD", "EPOCH": "2025-12-11T04:00:01.998720", "MEAN_MOTION": 15.56794577, "ECCENTRICITY": 8.49e-05, "INCLINATION": 53.1595, "RA_OF_ASC_NODE": 194.6972, "ARG_OF_PERICENTER": 93.8007, "MEAN_ANOMALY": 241.4791, "EPHEMERIS_TYPE": 0, "CLASSIFICATION_TYPE": "U", "NORAD_CAT_ID": 66644, "ELEMENT_SET_NO": 999, "REV_AT_EPOCH": 399, "BSTAR": -0.032027, "MEAN_MOTION_DOT": -0.02081543, "MEAN_MOTION_DDOT": 0}, "tle": {"line1": "1 66644U 25271AD  25345.16668980 -.02081543  00000+0 -32027-1 0  9995", "line2": "2 66644  53.1595 194.6972 0000849  93.8007 241.4791 15.56794577  3997"}}, "geometry": {"type": "Point", "coordinates": [-10.38074542449477, 28.188381814016502]}}, {"type": "Feature", "properties": {"norad_id": 66645, "name": "SHENZHOU-22", "group": "last-30-days", "lat": 37.53400864694719, "lon": 144.0593647244462, "alt_km": 384.4873769620717, "timestamp": "2025-12-11T10:53:14.621215+00:00", "meta": {"OBJECT_NAME": "SHENZHOU-22", "OBJECT_ID": "2025-272A", "EPOCH": "2025-12-10T20:34:09.975360", "MEAN_MOTION": 15.59054125, "ECCENTRICITY": 0.0008705, "INCLINATION": 41.4684, "RA_OF_ASC_NODE": 28.1364, "ARG_OF_PERICENTER": 14.9689, "MEAN_ANOMALY": 345.1405, "EPHEMERIS_TYPE": 0, "CLASSIFICATION_TYPE": "U", "NORAD_CAT_ID": 66645, "ELEMENT_SET_NO": 999, "REV_AT_EPOCH": 26357, "BSTAR": 0.00042990708, "MEAN_MOTION_DOT": 0.0003436, "MEAN_MOTION_DDOT": 0}, "tle": {"line1": "1 66645U 25272A   25344.85705990  .00034360  00000+0  42991-3 0  9999", "line2": "2 66645  41.4684  28.1364 0008705  14.9689 345.1405 15.59054125263579"}}, "geometry": {"type": "Point", "coordinates": [144.0593647244462, 37.53400864694719]}}, {"type": "Feature", "properties": {"norad_id": 66647, "name": "COSMOS 2597 (RODNIK-S 22)", "group": "last-30-days", "lat": 57.62000068412856, "lon": 95.25641996527293, "alt_km": 1498.8940159077383, "timestamp": "2025-12-11T10:53:14.621225+00:00", "meta": {"OBJECT_NAME": "COSMOS 2597 (RODNIK-S 22)", "OBJECT_ID": "2025-273A", "EPOCH": "2025-12-11T04:26:04.446816", "MEAN_MOTION": 12.4195129, "ECCENTRICITY": 0.0007925, "INCLINATION": 82.4986, "RA_OF_ASC_NODE": 287.4145, "ARG_OF_PERICENTER": 292.862, "MEAN_ANOMALY": 67.1622, "EPHEMERIS_TYPE": 0, "CLASSIFICATION_TYPE": "U", "NORAD_CAT_ID": 66647, "ELEMENT_SET_NO": 999, "REV_AT_EPOCH": 194, "BSTAR": 0.00017243, "MEAN_MOTION_DOT": 3.3e-07, "MEAN_MOTION_DDOT": 0}, "tle": {"line1": "1 66647U 25273A   25345.18477369  .00000033  00000+0  17243-3 0  9997", "line2": "2 66647  82.4986 287.4145 0007925 292.8620  67.1622 12.41951290  1943"}}, "geometry": {"type": "Point", "coordinates": [95.25641996527293, 57.62000068412856]}}, {"type": "Feature", "properties": {"norad_id": 66648, "name": "COSMOS 2598 (RODNIK-S 23)", "group": "last-30-days", "lat": 29.121491813078208, "lon": 103.04370427265867, "alt_km": 1494.2610342244961, "timestamp": "2025-12-11T10:53:14.621236+00:00", "meta": {"OBJECT_NAME": "COSMOS 2598 (RODNIK-S 23)", "OBJECT_ID": "2025-273B", "EPOCH": "2025-12-10T20:33:20.105280", "MEAN_MOTION": 12.42861563, "ECCENTRICITY": 0.00072453, "INCLINATION": 82.5033, "RA_OF_ASC_NODE": 287.6211, "ARG_OF_PERICENTER": 255.7215, "MEAN_ANOMALY": 104.3061, "EPHEMERIS_TYPE": 0, "CLASSIFICATION_TYPE": "U", "NORAD_CAT_ID": 66648, "ELEMENT_SET_NO": 999, "REV_AT_EPOCH": 190, "BSTAR": 6.0954808e-05, "MEAN_MOTION_DOT": 1.8e-07, "MEAN_MOTION_DDOT": 0}, "tle": {"line1": "1 66648U 25273B   25344.85648270  .00000018  00000+0  60955-4 0  9994", "line2": "2 66648  82.5033 287.6211 0007245 255.7215 104.3061 12.42861563  1908"}}, "geometry": {"type": "Point", "coordinates": [103.04370427265867, 29.121491813078208]}}, {"type": "Feature", "properties": {"norad_id": 66649, "name": "COSMOS 2599 (RODNIK-S 24)", "group": "last-30-days", "lat": 72.60937253684885, "lon": 82.40313338063041, "alt_km": 1498.5394966900367, "timestamp": "2025-12-11T10:53:14.621248+00:00", "meta": {"OBJECT_NAME": "COSMOS 2599 (RODNIK-S 24)", "OBJECT_ID": "2025-273C", "EPOCH": "2025-12-11T04:31:06.239424", "MEAN_MOTION": 12.41672341, "ECCENTRICITY": 0.0007905, "INCLINATION": 82.5027, "RA_OF_ASC_NODE": 287.4285, "ARG_OF_PERICENTER": 301.8406, "MEAN_ANOMALY": 58.1902, "EPHEMERIS_TYPE": 0, "CLASSIFICATION_TYPE": "U", "NORAD_CAT_ID": 66649, "ELEMENT_SET_NO": 999, "REV_AT_EPOCH": 194, "BSTAR": -0.00026959, "MEAN_MOTION_DOT": -2.7e-07, "MEAN_MOTION_DDOT": 0}, "tle": {"line1": "1 66649U 25273C   25345.18826666 -.00000027  00000+0 -26959-3 0  9996", "line2": "2 66649  82.5027 287.4285 0007905 301.8406  58.1902 12.41672341  1946"}}, "geometry": {"type": "Point", "coordinates": [82.40313338063041, 72.60937253684885]}}]}